[{"OBJECT_NAME":"HAIYANG-1D","OBJECT_ID":"2020-036A","EPOCH":"2026-03-09T23:25:01.064928","MEAN_MOTION":14.34203306,"ECCENTRICITY":0.00036798,"INCLINATION":98.4473,"RA_OF_ASC_NODE":12.8565,"ARG_OF_PERICENTER":84.5476,"MEAN_ANOMALY":275.6129,"EPHEMERIS_TYPE":0,"CLASSIFICATION_TYPE":"U","NORAD_CAT_ID":45721,"ELEMENT_SET_NO":999,"REV_AT_EPOCH":30075,"BSTAR":9.1285055e-5,"MEAN_MOTION_DOT":2.13e-6,"MEAN_MOTION_DDOT":0},{"OBJECT_NAME":"COSMOS 1275 DEB","OBJECT_ID":"1981-053FV","EPOCH":"2026-03-09T22:44:28.303584","MEAN_MOTION":14.25415161,"ECCENTRICITY":0.00425481,"INCLINATION":82.8312,"RA_OF_ASC_NODE":54.5867,"ARG_OF_PERICENTER":346.1068,"MEAN_ANOMALY":74.7557,"EPHEMERIS_TYPE":0,"CLASSIFICATION_TYPE":"U","NORAD_CAT_ID":13473,"ELEMENT_SET_NO":999,"REV_AT_EPOCH":23369,"BSTAR":0.0019899029,"MEAN_MOTION_DOT":4.754e-5,"MEAN_MOTION_DDOT":0}]
